fsq_place_id,name,address,latitude,longitude,description,website,phone,country_code,vibes,cuisine,adult only,category
4edf41624690cf9d227a0019,Museum Neukölln,"Alt-Britz 81, 12359 Berlin",52.44599883,13.43781352,,https://foursquare.com/placemakers/review-place/4edf41624690cf9d227a0019,,DE,"Vintage, Quiet, Casual, Family-Friendly, Solo-Friendly, Cozy, No Music, Special Exhibition, Interactive, Wheelchair Accessible, Walk-In Friendly",,child friendly,History Museum
5da1f1f4700b03000b95d161,Info Station - Café und Ausstellung,"Fritz-Reuter-Allee 44, 12359 Berlin",52.448723,13.449757,,https://foursquare.com/placemakers/review-place/5da1f1f4700b03000b95d161,,DE,"Artsy, Cozy, Minimalist, Vintage, Quiet, Family-Friendly, Solo-Friendly, Tourist Hotspot, No Music, Special Exhibition, Interactive, Gift Shop, Wheelchair Accessible, Outdoor Seating, Walk-In Friendly, Handcrafted",,child friendly,Museum
ec9dd69c637d459cb807f918,Freunde und Förderer Schloss Britz,"Alt-Britz 81, 12359 Berlin",52.446226,13.437164,,https://foursquare.com/placemakers/review-place/ec9dd69c637d459cb807f918,,DE,"Grand, Vintage, Artsy, Quiet, Cozy, Formal, Casual, Family-Friendly, Solo-Friendly, Date-night, Special Exhibition, Live Music, Classical, Jazz, Outdoor Seating, Wheelchair Accessible, Tourist Hotspot, Walk-In Friendly",,child friendly,Museum
1b27a0b5da404c5863a9b247,Frauentreffpunkt Schmiede,"Richardplatz 28, 12055 Berlin",52.47415349,13.44603055,,https://foursquare.com/placemakers/review-place/1b27a0b5da404c5863a9b247,,DE,"Artsy, Casual, Cozy, Family-Friendly, Free Wi-Fi Available, Handcrafted, Interactive, Quiet, Solo-Friendly, Special Exhibition, Vintage, Walk-In Friendly, Wheelchair Accessible",,child friendly,Museum
4b83d623f964a520d01231e3,Museum im böhmischen Dorf,"Kirchgasse 5, 12043 Berlin",52.47533736,13.44563036,,https://foursquare.com/placemakers/review-place/4b83d623f964a520d01231e3,,DE,"Vintage, Cozy, Quiet, Casual, Family-Friendly, Solo-Friendly, Handcrafted, Walk-In Friendly, Special Exhibition, Tourist Hotspot",,child friendly,History Museum
648207ef68f4c959aa96921b,Skullmapping,,52.47673,13.459738,,https://foursquare.com/placemakers/review-place/648207ef68f4c959aa96921b,,DE,,,child friendly,Museum
4adcda81f964a5206c4821e3,Puppentheater-Museum Berlin,"Karl-Marx-Straße 135, 12043 Berlin",52.47726113,13.43916622,,https://foursquare.com/placemakers/review-place/4adcda81f964a5206c4821e3,,DE,"Artsy, Cozy, Vintage, Quiet, Casual, Family-Friendly, Solo-Friendly, Handcrafted, Walk-In Friendly, Wheelchair Accessible, Interactive, Special Exhibition",,child friendly,Museum
921a6833cacf4c2aa13ef8b7,Aviatrix Betriebs UG,"Herrfurthstraße 13, 12049 Berlin",52.47704569,13.41986431,,https://foursquare.com/placemakers/review-place/921a6833cacf4c2aa13ef8b7,,DE,"Artsy, Bustling, Casual, Cozy, Date-night, Dimly-lit, DJ, Free Wi-Fi Available, Jukebox, Late-Night Service, Lo-Fi, Outdoor Seating, Pet-Friendly, Pre-game, Solo-Friendly, Special Exhibition, Student Hangout, Tourist Hotspot, Vintage, Walk-In Friendly",,child friendly,Museum
1b2ed757873f44f91ef5c506,Atelierhaus Schön 13,"Schönstedtstr. 13, 12043 Berlin",52.48263499,13.4364806,,https://foursquare.com/placemakers/review-place/1b2ed757873f44f91ef5c506,,DE,"Artsy, Industrial-Chic, Casual, Solo-Friendly, Special Exhibition, Interactive, Handcrafted, Vibrant, Bustling, Quiet, Student Hangout, Walk-In Friendly, Free Wi-Fi Available, Late-Night Work, DJ, Live Music",,child friendly,Museum
395fd5f738684ccd19cd1ab2,DasLABOR,"Fuldastr. 56, 12043 Berlin",52.48328955,13.43482534,,https://foursquare.com/placemakers/review-place/395fd5f738684ccd19cd1ab2,,DE,"Artsy, Minimalist, Vintage, Futuristic, Quiet, Casual, Date-night, Solo-Friendly, Handcrafted, Walk-In Friendly, Interactive, Special Exhibition, Live Music",,child friendly,Museum
5ba111dc4c954c002c6e3bed,Erdemuseum,"Weichselstraße 52, 12045 Berlin",52.48663991,13.43529682,,https://foursquare.com/placemakers/review-place/5ba111dc4c954c002c6e3bed,,DE,"Artsy, Eco-Conscious, Interactive, Special Exhibition, Quiet, Minimalist, Casual, Solo-Friendly, Handcrafted, Reservation Essential",,child friendly,Science Museum
d67f4b505bea4fe6c025154c,S C H M I tt B L I C K,"HobrechtStr. 28, 12047 Berlin",52.49088262,13.4264281,,https://foursquare.com/placemakers/review-place/d67f4b505bea4fe6c025154c,,DE,"Vintage, Dimly-lit, Bustling, Casual, Pre-game, Solo-Friendly, Late-Night Service, Walk-In Friendly, Outdoor Seating, Pet-Friendly, Cocktail Destination, Jukebox, Student Hangout",,child friendly,Museum
5c38f4cbb04056002c6d1468,Intro Stammtisch,,52.491278,13.424689,,https://foursquare.com/placemakers/review-place/5c38f4cbb04056002c6d1468,,DE,,,adult only,Erotic Museum
4e663d992271573ad939420b,Gutshof Britz,"Alt-Britz 73, 12359 Berlin",52.44587645,13.43817817,,https://foursquare.com/placemakers/review-place/4e663d992271573ad939420b,,DE,"Grand, Vintage, Artsy, Quiet, Family-Friendly, Solo-Friendly, Outdoor Seating, Wheelchair Accessible, Special Exhibition, Tourist Hotspot, Cozy, Casual, Date-night, Pet-Friendly, Free Wi-Fi Available, Reservation Essential, Extensive Wine List, Quick Lunch",,child friendly,Historic and Protected Site
4e1ea2bc62840ee80742cb23,Schloss Britz,"Alt-Britz 73, 12359 Berlin",52.4469601,13.43780816,,https://foursquare.com/placemakers/review-place/4e1ea2bc62840ee80742cb23,,DE,"Artsy, Grand, Vintage, Quiet, Formal, Date-night, Family-Friendly, Solo-Friendly, Walk-In Friendly, Outdoor Seating, Special Exhibition, Classical, Tourist Hotspot, Live Music",,child friendly,Palace
5217309f498e84315daee9cb,Café Botanico,"Richardstr. 100, 12043 Berlin",52.47732041,13.4409745,,https://foursquare.com/placemakers/review-place/5217309f498e84315daee9cb,,DE,"Cozy, Outdoor Seating, Casual, Date-night, Family-Friendly, Eco-Conscious, Handcrafted, Extensive Wine List, Free Wi-Fi Available, Reservation Essential, Wheelchair Accessible, Tropical, Vintage, Vibrant, Dimly-lit, Lo-Fi, Brunch, Solo-Friendly",Coffee,child friendly,Café
52a0d95211d292d2566b9a0c,Café Amalia,"Selkestr. 27 (Nogastr.), 12051 Berlin",52.47006459,13.43670685,,https://foursquare.com/placemakers/review-place/52a0d95211d292d2566b9a0c,,DE,"Cozy, Casual, Solo-Friendly, Walk-In Friendly, Outdoor Seating, Quick Lunch, Brunch, Quiet, Lo-Fi, Free Wi-Fi Available",Coffee,child friendly,Café
4c430451e26920a115d460e7,Cafe Dritter Raum,"Hertzbergstr. 14, 12055 Berlin",52.477134,13.448106,,https://foursquare.com/placemakers/review-place/4c430451e26920a115d460e7,,DE,"Cozy, Minimalist, Quiet, Casual, Solo-Friendly, Walk-In Friendly, Outdoor Seating, Free Wi-Fi Available, Late-Night Work, Lo-Fi, Quick Lunch, Brunch",Coffee,child friendly,Café
56afdc27498ef991e976d4b6,Tennis Café/Bar,"Reuterstr. 95 (Flughafenstraße), 12053 Berlin",52.48098828,13.42925035,,https://foursquare.com/placemakers/review-place/56afdc27498ef991e976d4b6,,DE,"Cozy, Casual, Solo-Friendly, Walk-In Friendly, Outdoor Seating, Free Wi-Fi Available, Late-Night Work, Lo-Fi, Student Hangout",Coffee,child friendly,Café
4e218c97b61cdcf1ecbe46d8,Myxa Café,"Lenaustr. 22, 12047 Berlin",52.49019904,13.42674436,,https://foursquare.com/placemakers/review-place/4e218c97b61cdcf1ecbe46d8,,DE,"Artsy, Cozy, Casual, Date-night, Family-Friendly, Solo-Friendly, Walk-In Friendly, Outdoor Seating, Brunch, Late-Night Work, Jukebox",Coffee,child friendly,Café
5ac9dba9fe37400efdc6f993,Greens Cafe,"Weserstr. 44, 12045 Berlin",52.48437274,13.43774761,,https://foursquare.com/placemakers/review-place/5ac9dba9fe37400efdc6f993,,DE,"Cozy, Minimalist, Eco-Conscious, Walk-In Friendly, Outdoor Seating, Quick Lunch, Brunch, Quiet, Lo-Fi",Coffee,child friendly,Café
59075bab3731ee4317e131ab,Café Plume,"Warthestr. 60, 12051 Berlin",52.46960173,13.42576327,,https://foursquare.com/placemakers/review-place/59075bab3731ee4317e131ab,,DE,"Cozy, Artsy, Vintage, Casual, Solo-Friendly, Family-Friendly, Pet-Friendly, Outdoor Seating, Wheelchair Accessible, Live Music, Late-Night Service, Brunch, Extensive Wine List, Late-Night Work",Coffee,child friendly,Café
5205fe8111d2ad7f336a03e7,Café Kanel,"Schillerpromenade 25, 12049 Berlin",52.47360417,13.42369896,,https://foursquare.com/placemakers/review-place/5205fe8111d2ad7f336a03e7,,DE,"Cozy, Artsy, Handcrafted, Walk-In Friendly, Outdoor Seating, Pet-Friendly, Quick Lunch, Brunch, Student Hangout, Quiet",Coffee,child friendly,Café
4adcda77f964a5200a4621e3,Café Rix,"Karl-Marx-Str. 141, 12043 Berlin",52.47691351,13.43924431,,https://foursquare.com/placemakers/review-place/4adcda77f964a5200a4621e3,,DE,"Vintage, Grand, Casual, Family-Friendly, Solo-Friendly, Extensive Wine List, Walk-In Friendly, Outdoor Seating, Wheelchair Accessible, Brunch, Quick Lunch, Live Music",Coffee,child friendly,Café
5bdee8fada7080002c63c25d,Cafe Babette,"Am Sudhaus 3, 12053 Berlin",52.47927222,13.43083064,,https://foursquare.com/placemakers/review-place/5bdee8fada7080002c63c25d,,DE,"Industrial-Chic, Artsy, Minimalist, Cozy, Vibrant, Dimly-lit, Casual, Date-night, Solo-Friendly, Handcrafted, Free Wi-Fi Available, Walk-In Friendly, Outdoor Seating, Wheelchair Accessible, Late-Night Work, Jukebox, Student Hangout, Live Music, DJ, Cocktail Destination, Brunch",Coffee,child friendly,Café
4c3a05951a38ef3b86079321,Louis Café-Restaurant,"Richardplatz 5, 12055 Berlin",52.47441042,13.44528605,,https://foursquare.com/placemakers/review-place/4c3a05951a38ef3b86079321,,DE,"Cozy, Vintage, Quiet, Family-Friendly, Solo-Friendly, Walk-In Friendly, Outdoor Seating, Quick Lunch, Brunch",Austrian,child friendly,Austrian Restaurant
60840c64e53eb8415874b159,Das Grüne Cafe,"Mohriner Allee 71, Berlin",52.441167,13.423996,,https://foursquare.com/placemakers/review-place/60840c64e53eb8415874b159,,DE,"Cozy, Family-Friendly, Solo-Friendly, Walk-In Friendly, Outdoor Seating, Quick Lunch, Brunch, Quiet, Lo-Fi",Coffee,child friendly,Café
50fc4395e4b084af5edb832e,Loislane,"Emser Str. 41, 12051 Berlin",52.46843026,13.42968415,,https://foursquare.com/placemakers/review-place/50fc4395e4b084af5edb832e,,DE,"Cozy, Artsy, Vintage, Casual, Family-Friendly, Solo-Friendly, Quick Lunch, Brunch, Walk-In Friendly, Handcrafted",Coffee,child friendly,Café
526b9c4e11d2ef13bf80f997,Prachtwerk,"Ganghoferstr. 2, 12043 Berlin",52.47905242,13.43882354,,https://foursquare.com/placemakers/review-place/526b9c4e11d2ef13bf80f997,,DE,"Industrial-Chic, Artsy, Cozy, Vintage, Vibrant, Bustling, Casual, Pre-game, Date-night, Family-Friendly, Solo-Friendly, Handcrafted, Late-Night Service, Eco-Conscious, Free Wi-Fi Available, Walk-In Friendly, Outdoor Seating, Wheelchair Accessible, Pet-Friendly, Interactive, Special Exhibition, Cocktail Destination, Student Hangout, Live Music",Coffee,child friendly,Café
4d039544a26854810d9fb2bd,That Pink Café,"Schwarzastr. 9, 12055 Berlin",52.472679,13.454639,,https://foursquare.com/placemakers/review-place/4d039544a26854810d9fb2bd,,DE,"Vibrant, Artsy, Cozy, Casual, Family-Friendly, Solo-Friendly, Handcrafted, Quick Lunch, Brunch, Walk-In Friendly, Outdoor Seating, Free Wi-Fi Available",Coffee,child friendly,Coffee Shop
57d586f4498e04744340dec1,BONA Kollektiv,"Hermannstr. 178, 12051 Berlin",52.47173129,13.42933045,,https://foursquare.com/placemakers/review-place/57d586f4498e04744340dec1,,DE,"Cozy, Artsy, Handcrafted, Brunch, Quick Lunch, Solo-Friendly, Walk-In Friendly, Student Hangout, Jukebox, DJ, Live Music, Music Fusion",Coffee,child friendly,Café
533182cf498e40703be8ce53,Two Planets,"Hermannstr. 230 (Flughafenstr.), 12049 Berlin",52.4814768,13.42569129,,https://foursquare.com/placemakers/review-place/533182cf498e40703be8ce53,,DE,"Artsy, Cozy, Quiet, Casual, Solo-Friendly, Walk-In Friendly, Free Wi-Fi Available, Quick Lunch, Brunch, Late-Night Work, Lo-Fi, Student Hangout",Coffee,child friendly,Café
6276452011652d3825ce8f65,It’s a long story,"Hermannstr. 178, 12051 Berlin",52.471783,13.429329,,https://foursquare.com/placemakers/review-place/6276452011652d3825ce8f65,,DE,"Dimly-lit, Cozy, Minimalist, Handcrafted, Extensive Wine List, Cocktail Destination, Date-night, Walk-In Friendly, Late-Night Service, Late-Night Work, Jazz, Live Music, Silent Disco, Lo-Fi, Music Fusion",Coffee,child friendly,Café
5144aa4fe4b042f54148cc85,Fatma & Frieda,"Reuterstr. 75 (Donaustr.), 12043 Berlin",52.48513888,13.42866182,,https://foursquare.com/placemakers/review-place/5144aa4fe4b042f54148cc85,,DE,"Cozy, Artsy, Casual, Solo-Friendly, Family-Friendly, Walk-In Friendly, Outdoor Seating, Wheelchair Accessible, Pet-Friendly, Free Wi-Fi Available, Reservation Essential, Quick Lunch, Brunch",Coffee,child friendly,Café
5e538befcb604100083c7508,Kitten Deli,"Friedelstr. 30, 12047 Berlin",52.49295838,13.42829096,,https://foursquare.com/placemakers/review-place/5e538befcb604100083c7508,,DE,"Artsy, Cozy, Vintage, Bustling, Casual, Date-night, Handcrafted, Reservation Essential, Walk-In Friendly, Outdoor Seating, Cocktail Destination, Quick Lunch, Brunch",Coffee,child friendly,Café
4f2dbf03e4b050b64986bb1f,CockTail D'Amore,"Ziegrastr. 11-13, 12057 Berlin",52.4761615,13.45758431,,https://foursquare.com/placemakers/review-place/4f2dbf03e4b050b64986bb1f,,DE,"Industrial-Chic,Artsy,Vibrant,Dimly-lit,Bustling,Casual,Date-night,Clubbing,Dancing,Techno,DJ,Late-Night Service,Walk-In Friendly,Outdoor Seating,Cocktail Destination,Tourist Hotspot",Alcohol,adult only,Night Club
5a4802adea1e4412308bc0f0,arkaoda Berlin,"Karl-Marx-Platz 16, 12043 Berlin",52.47374066,13.44253994,,https://foursquare.com/placemakers/review-place/5a4802adea1e4412308bc0f0,,DE,"Dimly-lit, Artsy, Vintage, Bustling, Late-Night Service, Walk-In Friendly, Student Hangout, Tourist Hotspot, Jazz, Techno, Live Music, Music Fusion, DJ, Interactive, Cocktail Destination, Clubbing, Late-Night Work, Casual, Solo-Friendly",Alcohol,adult only,Night Club
5125401be4b0a22691e23004,Mio Club,Berlin,52.428868,13.484929,,https://foursquare.com/placemakers/review-place/5125401be4b0a22691e23004,,DE,"Futuristic, Grand, Vibrant, Dimly-lit, Formal, Casual, Date-night, Family-Friendly, Solo-Friendly, Extensive Wine List, Late-Night Service, Reservation Essential, Outdoor Seating, Wheelchair Accessible, Cocktail Destination, Quick Lunch, Brunch, Late-Night Work, DJ, Live Music, Music Fusion",Alcohol,adult only,Night Club
4cd4c55d67adf04d257a2991,Top Disco,"Neuköllner Str.257 (Zwickauer Damm), 12357 Berlin",52.42601239,13.48356376,,https://foursquare.com/placemakers/review-place/4cd4c55d67adf04d257a2991,,DE,"Bustling, Late-Night Service, Dancing, Clubbing, Techno, Live Music, DJ, Date-night, Pre-game, Walk-In Friendly, Student Hangout, Cocktail Destination",Alcohol,adult only,Night Club
51cf6e23498ecb345292234d,Galaxy,"Hermannstr. 146, Neukölln",52.46432696,13.4334126,,https://foursquare.com/placemakers/review-place/51cf6e23498ecb345292234d,,DE,"Dimly-lit, Late-Night Service, Walk-In Friendly, Student Hangout, Techno, DJ",Alcohol,adult only,Night Club
4b106c8bf964a520247023e3,Raum18,"Ziegrastr. 11, 12057 Berlin",52.47601175,13.46004848,,https://foursquare.com/placemakers/review-place/4b106c8bf964a520247023e3,,DE,"Industrial-Chic, Artsy, Handcrafted, Extensive Wine List, Cocktail Destination, Live Music, DJ, Late-Night Service, Reservation Essential, Walk-In Friendly, Outdoor Seating, Wheelchair Accessible, Quiet, Casual, Solo-Friendly",Alcohol,adult only,Night Club
51c88abc498ed63496d0d14f,Sean's President Suite,Berlin,52.480133,13.451855,,https://foursquare.com/placemakers/review-place/51c88abc498ed63496d0d14f,,DE,"Grand, Formal, Futuristic, Extensive Wine List, Reservation Essential, Free Wi-Fi Available, Wheelchair Accessible, Cocktail Destination, Live Music",Alcohol,adult only,Strip Club
52db1b4b11d2afd248ace031,Palast Neukölln,Berlin,52.47970701,13.43369345,,https://foursquare.com/placemakers/review-place/52db1b4b11d2afd248ace031,,DE,"Grand, Vintage, Bustling, Casual, Family-Friendly, Walk-In Friendly, Wheelchair Accessible, Gift Shop",Alcohol,adult only,Night Club
512911bfe4b089fc3ac6f5fa,Safari Grotto,Berlin,52.48383226,13.4348744,,https://foursquare.com/placemakers/review-place/512911bfe4b089fc3ac6f5fa,,DE,"Tropical, Artsy, Dimly-lit, Cocktail Destination, Live Music, Date-night, Walk-In Friendly, Late-Night Service, Casual",Alcohol,adult only,Strip Club
51f2d8e8498eed6b169c1570,Fuchs & Elster RoofTop,"20160108, Berlin",52.4831803,13.43018547,,https://foursquare.com/placemakers/review-place/51f2d8e8498eed6b169c1570,,DE,"Cozy, Vintage, Vibrant, Bustling, Casual, Date-night, Late-Night Service, Walk-In Friendly, Outdoor Seating, Cocktail Destination, Live Music, Jukebox, DJ, Student Hangout, Tourist Hotspot",Alcohol,adult only,Night Club
5441e946498e061ec0f22319,Bertrams,Berlin,52.49068204,13.43605397,,https://foursquare.com/placemakers/review-place/5441e946498e061ec0f22319,,DE,"Grand, Vintage, Formal, Reservation Essential, Extensive Wine List, Classical, Live Music, Date-night, Wheelchair Accessible, Gift Shop",Alcohol,adult only,Night Club
57432847498e7647fc68eef2,Chez Cubinho,12059 Berlin,52.486309,13.449766,,https://foursquare.com/placemakers/review-place/57432847498e7647fc68eef2,,DE,"Vibrant, Casual, Family-Friendly, Solo-Friendly, Walk-In Friendly, Outdoor Seating, Quick Lunch, Brunch, Lo-Fi",Alcohol,adult only,Strip Club
51c2ad6f498ed4524266cd36,T-Rex,Berlin,52.48773328,13.43674396,,https://foursquare.com/placemakers/review-place/51c2ad6f498ed4524266cd36,,DE,"Grand, Interactive, Special Exhibition, Family-Friendly, Tourist Hotspot, Wheelchair Accessible",Alcohol,adult only,Night Club
5e2cb63f60054d0008c3b05f,Christa Kupfer,"Maybachufer 48, 12045 Berlin",52.49041906,13.43537324,,https://foursquare.com/placemakers/review-place/5e2cb63f60054d0008c3b05f,,DE,"Dimly-lit, Bustling, Casual, Date-night, Walk-In Friendly, Outdoor Seating, Late-Night Service, Happy Hour, Dancing, Clubbing, Cocktail Destination, Live Music, Jazz, Techno, Music Fusion, DJ",Alcohol,adult only,Night Club
4f5a9e0de4b008b15596a2ab,Berliner Loge,Berlin,52.49256413,13.42603259,,https://foursquare.com/placemakers/review-place/4f5a9e0de4b008b15596a2ab,,DE,"Date-night, Cozy, Dimly-lit, Quiet, Formal, Vintage, Extensive Wine List, Reservation Essential, Live Music, Classical, Jazz",Alcohol,adult only,Strip Club
4fb6591ee4b00ae0529a30c9,Villa Neukölln,"Hermannstr. 233 (Biebricher Str.), 12049 Berlin",52.48209366,13.42507475,,https://foursquare.com/placemakers/review-place/4fb6591ee4b00ae0529a30c9,,DE,"Cozy, Dimly-lit, Vintage, Handcrafted, Extensive Wine List, Late-Night Service, Walk-In Friendly, Outdoor Seating, Pet-Friendly, Happy Hour, Live Music, Jazz, Casual, Date-night, Solo-Friendly",Alcohol,adult only,Lounge
4adcda79f964a5207b4621e3,SchwuZ,"Rollbergstr. 26, 12053 Berlin",52.4793491,13.43371511,,https://foursquare.com/placemakers/review-place/4adcda79f964a5207b4621e3,,DE,"Bustling, Vibrant, Dimly-lit, Artsy, Casual, Solo-Friendly, Date-night, Late-Night Service, Dancing, Clubbing, Live Music, DJ, Tourist Hotspot",Alcohol,adult only,Gay Bar
4dcaf1ecfa76d745f04a0321,McDonald's,"Rudower Str. 100, 12351 Berlin",52.43615708,13.464686,,https://foursquare.com/placemakers/review-place/4dcaf1ecfa76d745f04a0321,,DE,"Quick Lunch, Family-Friendly, Casual, Walk-In Friendly, Bustling, Free Wi-Fi Available, Wheelchair Accessible, Late-Night Service, Student Hangout, Tourist Hotspot",Fast Food,child friendly,Fast Food Restaurant
5217687f11d2c3b88a0e764d,Ketchup 35,"Gradestr. 35, 12347 Berlin",52.45217301,13.43226151,,https://foursquare.com/placemakers/review-place/5217687f11d2c3b88a0e764d,,DE,"Casual, Family-Friendly, Solo-Friendly, Walk-In Friendly, Quick Lunch",Fast Food,child friendly,Snack Place
4dde0f681f6e0369473aac6e,Märkisches Landbrot,"Bergiusstraße 36, 12057 Berlin",52.46265266,13.45813607,,https://foursquare.com/placemakers/review-place/4dde0f681f6e0369473aac6e,,DE,"Minimalist, Cozy, Family-Friendly, Solo-Friendly, Walk-In Friendly, Quick Lunch, Quiet, No Music",Bakery,child friendly,Bakery
4e79071aae60f8128c6d2743,NUR Gemüse-Kebap,"Hermannstr. 113 (auf der S-Bahnbrücke), 12051 Berlin",52.46702701,13.43144754,,https://foursquare.com/placemakers/review-place/4e79071aae60f8128c6d2743,,DE,"Quick Lunch, Walk-In Friendly, Casual, Student Hangout, Tourist Hotspot, Bustling, Vibrant, Free Wi-Fi Available, Outdoor Seating",Kebab,child friendly,Doner Restaurant
4e11f8a3d4c07597ff853766,Casa Montella,"Krokusstr. 80, 12357 Berlin",52.4215828,13.4945055,,https://foursquare.com/placemakers/review-place/4e11f8a3d4c07597ff853766,,DE,"Minimalist, Cozy, Family-Friendly, Solo-Friendly, Walk-In Friendly, Outdoor Seating, Wheelchair Accessible, Quick Lunch, Brunch",Italian,child friendly,Italian Restaurant
4d9c8a3d7865a0930e0dd37a,Pho Phan,"Hermannstr. 151, 12051 Berlin",52.46559242,13.43269541,,https://foursquare.com/placemakers/review-place/4d9c8a3d7865a0930e0dd37a,,DE,"Casual, Family-Friendly, Solo-Friendly, Walk-In Friendly, Outdoor Seating, Quick Lunch, Cozy, Quiet, Brunch, Late-Night Service, Vibrant",Vietnamese,child friendly,Vietnamese Restaurant
529b562111d248489a0afea9,Asude,"Hermannstraße 120, 12051 Berlin",52.46558935,13.43181533,,https://foursquare.com/placemakers/review-place/529b562111d248489a0afea9,,DE,"Casual, Bustling, Late-Night Service, Family-Friendly, Solo-Friendly, Quick Lunch",Turkish,child friendly,Turkish Home Cooking Restaurant
50fc4395e4b084af5edb832e,Loislane,"Emser Str. 41, 12051 Berlin",52.46843026,13.42968415,,https://foursquare.com/placemakers/review-place/50fc4395e4b084af5edb832e,,DE,"Cozy, Artsy, Vintage, Quiet, Casual, Solo-Friendly, Family-Friendly, Handcrafted, Free Wi-Fi Available, Walk-In Friendly, Outdoor Seating, Brunch, Quick Lunch, Classical, Lo-Fi",Coffee,child friendly,Café
4c34606a7cc0c9b68c2af39a,Vux,"Wipperstr. 14 (Kirchhofstr.), 12055 Berlin",52.47215815,13.44250739,,https://foursquare.com/placemakers/review-place/4c34606a7cc0c9b68c2af39a,,DE,"Casual, Cozy, Late-Night Service, Walk-In Friendly, Student Hangout, Jukebox, Dimly-lit, Solo-Friendly",Vegan,child friendly,Vegan and Vegetarian Restaurant
4e7793c48130fa6bd3b581ff,Nini e Pettirosso,"Selkestr. 27, 12051 Berlin",52.470317,13.43698,,https://foursquare.com/placemakers/review-place/4e7793c48130fa6bd3b581ff,,DE,"Casual, Family-Friendly, Walk-In Friendly, Quick Lunch, Date-night",Italian,child friendly,Italian Restaurant
4ed29522e3007feb8019214b,Estrel Stube,"Sonnenallee 225, 12057 Berlin",52.47332368,13.45893761,,https://foursquare.com/placemakers/review-place/4ed29522e3007feb8019214b,,DE,"Cozy, Vintage, Casual, Bustling, Family-Friendly, Solo-Friendly, Late-Night Service, Walk-In Friendly, Tourist Hotspot, Wheelchair Accessible",German,child friendly,German Restaurant
50ce405fe4b0aceb60754dbc,Meraklı Köfteci,"Hermannstr. 174, 12051 Berlin",52.47110178,13.42974066,,https://foursquare.com/placemakers/review-place/50ce405fe4b0aceb60754dbc,,DE,"Casual, Walk-In Friendly, Quick Lunch, Family-Friendly, Minimalist, Cozy, Student Hangout",Turkish,child friendly,Turkish Restaurant
57849261498e1186f9a6c827,Kønigliche Backstube,"Zwiestädter Str.10, 12055 Berlin",52.47329819,13.44770067,,https://foursquare.com/placemakers/review-place/57849261498e1186f9a6c827,,DE,"Handcrafted, Vintage, Cozy, Quiet, Solo-Friendly, Walk-In Friendly, Outdoor Seating, Wheelchair Accessible, Quick Lunch, Brunch, No Music",Bakery,child friendly,Bakery
4e46d1d5d22d12b08bc6fbcd,Vecchia Cantina,"Alt-Rudow 43a, 12357 Berlin",52.41919131,13.49411481,,https://foursquare.com/placemakers/review-place/4e46d1d5d22d12b08bc6fbcd,,DE,"Cozy, Vintage, Handcrafted, Casual, Date-night, Family-Friendly, Solo-Friendly, Quiet, Quick Lunch, Walk-In Friendly",Italian,child friendly,Italian Restaurant
52a0d95211d292d2566b9a0c,Café Amalia,"Selkestr. 27 (Nogastr.), 12051 Berlin",52.47006459,13.43670685,,https://foursquare.com/placemakers/review-place/52a0d95211d292d2566b9a0c,,DE,"Casual, Solo-Friendly, Walk-In Friendly, Outdoor Seating, Wheelchair Accessible, Quick Lunch, Brunch, Late-Night Work, Student Hangout, Quiet",Coffee,child friendly,Café
5dadd8f81d39a200081c8ab1,Viet Bowl,"Böhmische Str. 13 (Niemetzstr.), 12055 Berlin",52.473618,13.449675,,https://foursquare.com/placemakers/review-place/5dadd8f81d39a200081c8ab1,,DE,"Casual, Family-Friendly, Solo-Friendly, Quick Lunch, Walk-In Friendly, Free Wi-Fi Available",Vietnamese,child friendly,Vietnamese Restaurant
5b375828ca18ea002c26372d,21 Gramm,"Hermannstr. 179 (Thomasstr.), 12049 Berlin",52.472125,13.429082,,https://foursquare.com/placemakers/review-place/5b375828ca18ea002c26372d,,DE,"Vibrant, Cozy, Casual, Family-Friendly, Solo-Friendly, Walk-In Friendly, Outdoor Seating, Wheelchair Accessible, Brunch, Quick Lunch, Late-Night Work, Jukebox, Live Music, DJ",Breakfast,child friendly,Breakfast Spot
5b2e831c724750002c4e7540,Zosse,"Richardstrasse 37, 12055 Berlin",52.47491803,13.44369395,,https://foursquare.com/placemakers/review-place/5b2e831c724750002c4e7540,,DE,"Artsy, Minimalist, Cozy, Quiet, Casual, Solo-Friendly, Walk-In Friendly, Wheelchair Accessible, Quick Lunch, Brunch, Late-Night Work, No Music, Student Hangout, Lo-Fi",,child friendly,Gastropub
571b5777498eba1f339da072,Hallmann und Klee,"Böhmische Str. 13, 12055 Berlin",52.47387512,13.44951659,,https://foursquare.com/placemakers/review-place/571b5777498eba1f339da072,,DE,"Minimalist, Formal, Date-night, Handcrafted, Extensive Wine List, Reservation Essential, Walk-In Friendly, Outdoor Seating, Wheelchair Accessible, Tasting Menu Only, Cocktail Destination, Live Music, Classical, Jazz",Breakfast,child friendly,Breakfast Spot
57d586f4498e04744340dec1,BONA Kollektiv,"Hermannstr. 178, 12051 Berlin",52.47173129,13.42933045,,https://foursquare.com/placemakers/review-place/57d586f4498e04744340dec1,,DE,"Artsy, Minimalist, Cozy, Quiet, Casual, Solo-Friendly, Handcrafted, Walk-In Friendly, Outdoor Seating, Wheelchair Accessible, Free Wi-Fi Available, Quick Lunch, Brunch, Late-Night Work, Lo-Fi",Coffee,child friendly,Café
514f920cb0edeef407181936,Ω Bar,"Wipperstr. 18 (Schöneweider Str.), 12055 Berlin",52.47151382,13.44317435,,https://foursquare.com/placemakers/review-place/514f920cb0edeef407181936,,DE,"Industrial-Chic, Dimly-lit, Casual, Date-night, Walk-In Friendly, Late-Night Work, Jukebox, Student Hangout, Live Music, DJ",Alcohol,child friendly,Bar
555a417c498e52b9e12fe3a8,Keith Bar,"Schillerpromenade 2, 12049 Berlin",52.47823242,13.42146277,,https://foursquare.com/placemakers/review-place/555a417c498e52b9e12fe3a8,,DE,"Artsy, Vibrant, Casual, Bustling, Late-Night Service, Date-night, DJ, Walk-In Friendly",Alcohol,child friendly,Whisky Bar
54947dfe498e91fedc33ed21,Beuster Bar,"Weserstr. 32 (Weichselstr.), 12045 Berlin",52.48584459,13.43546064,,https://foursquare.com/placemakers/review-place/54947dfe498e91fedc33ed21,,DE,"Cozy, Vintage, Vibrant, Bustling, Casual, Date-night, Solo-Friendly, Handcrafted, Late-Night Service, Reservation Essential, Walk-In Friendly, Outdoor Seating, Cocktail Destination, Brunch","Alcohol, Cocktail",child friendly,Cocktail Bar
5259adfd498e8d8c6524c701,Velvet Bar,"Ganghoferstr. 1, 12043 Berlin",52.47907883,13.43842112,,https://foursquare.com/placemakers/review-place/5259adfd498e8d8c6524c701,,DE,"Industrial-Chic, Artsy, Cozy, Dimly-lit, Casual, Date-night, Cocktail Destination, Late-Night Service, Handcrafted, Outdoor Seating, Wheelchair Accessible, Pet-Friendly, Reservation Essential","Alcohol, Cocktail",child friendly,Cocktail Bar
4b71aae4f964a520d1542de3,TiER,"Weserstr. 42 (Fuldastr.), 12045 Berlin",52.48486749,13.43760657,,https://foursquare.com/placemakers/review-place/4b71aae4f964a520d1542de3,,DE,"Cozy, Dimly-lit, Vintage, Handcrafted, Extensive Wine List, Late-Night Service, Walk-In Friendly, Cocktail Destination, Late-Night Work, Jukebox, Solo-Friendly","Alcohol, Cocktail",child friendly,Cocktail Bar
531b95a6498efcbaf0388329,Yuma Bar,"Weserstr. 14, 12047 Berlin",52.48762015,13.43071597,,https://foursquare.com/placemakers/review-place/531b95a6498efcbaf0388329,,DE,"Vibrant, Artsy, Cozy, Dimly-lit, Bustling, Casual, Solo-Friendly, Handcrafted, Late-Night Service, Cocktail Destination, Walk-In Friendly, DJ","Alcohol, Cocktail",child friendly,Cocktail Bar
58fbd9d4a423622722ea16a7,Truffle Pig Bar,"Reuterstr. 47, 12047 Berlin",52.49014688,13.42840057,,https://foursquare.com/placemakers/review-place/58fbd9d4a423622722ea16a7,,DE,"Cozy, Dimly-lit, Vintage, Casual, Quiet, Date-night, Solo-Friendly, Handcrafted, Cocktail Destination, Late-Night Service, Reservation Essential, Tourist Hotspot","Alcohol, Cocktail",child friendly,Cocktail Bar
51bb5e86498e3e2a6276f20f,Klunkerkranich,"Karl-Marx-Str. 66, 12043 Berlin",52.48209624,13.43141961,,https://foursquare.com/placemakers/review-place/51bb5e86498e3e2a6276f20f,,DE,"Artsy, Industrial-Chic, Cozy, Dimly-lit, Vibrant, Bustling, Casual, Pre-game, Date-night, Family-Friendly, Solo-Friendly, Student Hangout, Tourist Hotspot, Late-Night Service, Eco-Conscious, Walk-In Friendly, Outdoor Seating, Wheelchair Accessible, Pet-Friendly, Cocktail Destination, Brunch, Dancing, Clubbing, Live Music, Music Fusion, DJ, Handcrafted","Alcohol, Beer",child friendly,Beer Garden
57b8a66ccd10ab004e256f6c,Muted Horn,"Flughafenstr. 49 (Hermannstr.), 12053 Berlin",52.48070841,13.42628054,,https://foursquare.com/placemakers/review-place/57b8a66ccd10ab004e256f6c,,DE,"Industrial-Chic, Cozy, Quiet, Casual, Solo-Friendly, Handcrafted, Extensive Wine List, Walk-In Friendly, Outdoor Seating, Wheelchair Accessible, Late-Night Work, Jukebox, Student Hangout, Lo-Fi","Alcohol, Beer",child friendly,Beer Bar
56b654de498e8bc7cb23f478,Wildenbruch Bar,"Wildenbruchstraße 68 (Harzerstraße), Berlin",52.48628178,13.4459948,,https://foursquare.com/placemakers/review-place/56b654de498e8bc7cb23f478,,DE,"Cozy, Dimly-lit, Vintage, Quiet, Casual, Date-night, Solo-Friendly, Handcrafted, Late-Night Service, Walk-In Friendly, Outdoor Seating, Wheelchair Accessible, Cocktail Destination, Late-Night Work, Jazz, Live Music","Alcohol, Beer",child friendly,Pub
548b699b498e384ea1d193e1,Thelonious Bar,"Weserstr. 202, 12047 Berlin",52.48773912,13.43101775,,https://foursquare.com/placemakers/review-place/548b699b498e384ea1d193e1,,DE,"Cozy,Dimly-lit,Vintage,Casual,Quiet,Date-night,Solo-Friendly,Cocktail Destination,Late-Night Service,Jazz","Alcohol, Cocktail",child friendly,Cocktail Bar
4cc4a6f4be40a35dd3ec7f4c,Nathanja & Heinrich,"Weichselstr. 44 (Ossastr.), 12059 Berlin",52.48746331,13.43642587,,https://foursquare.com/placemakers/review-place/4cc4a6f4be40a35dd3ec7f4c,,DE,"Dimly-lit, Cozy, Vintage, Late-Night Service, Walk-In Friendly, Quiet, Cocktail Destination, Jazz, Live Music",Alcohol,child friendly,Bar
4ec846a9d3e3e131f33ee56d,Geist im Glas,"Lenaustr. 27 (Kottbusser Damm), 12047 Berlin",52.490175,13.42472055,,https://foursquare.com/placemakers/review-place/4ec846a9d3e3e131f33ee56d,,DE,"Cozy, Vintage, Dimly-lit, Casual, Pre-game, Date-night, Solo-Friendly, Handcrafted, Late-Night Service, Walk-In Friendly, Outdoor Seating, Wheelchair Accessible, Pet-Friendly, Happy Hour, Cocktail Destination, Brunch, Live Music","Alcohol, Cocktail",child friendly,Cocktail Bar
4d850d478de9721ef0c33e51,Frollein Langner,"Weisestr. 34 (Okerstr.), 12049 Berlin",52.47401135,13.42507755,,https://foursquare.com/placemakers/review-place/4d850d478de9721ef0c33e51,,DE,"Industrial-Chic, Artsy, Vintage, Dimly-lit, Bustling, Casual, Date-night, Solo-Friendly, Late-Night Service, Walk-In Friendly, Live Music, Cocktail Destination, Jukebox, Student Hangout, Happy Hour, Interactive, Cozy",Alcohol,child friendly,Bar
54e10a6a498e2dc6fb1a965e,Rotbart,"Böhmische Str. 43, 12055 Berlin",52.47414927,13.44925355,,https://foursquare.com/placemakers/review-place/54e10a6a498e2dc6fb1a965e,,DE,"Industrial-Chic, Artsy, Minimalist, Cozy, Dimly-lit, Vintage, Quiet, Casual, Date-night, Solo-Friendly, Extensive Wine List, Walk-In Friendly, Late-Night Work, Jukebox, Cocktail Destination, Late-Night Service",Alcohol,child friendly,Bar
4bbcf4290780952198fdd991,SOULCAT Music Bar,"Pannierstr. 53, 12047 Berlin",52.48798332,13.43172444,,https://foursquare.com/placemakers/review-place/4bbcf4290780952198fdd991,,DE,"Cozy, Dimly-lit, Vibrant, Vintage, Casual, Date-night, Solo-Friendly, Bustling, Late-Night Service, Outdoor Seating, Cocktail Destination, Live Music, DJ, Jazz, Dancing, Clubbing, Walk-In Friendly",Alcohol,child friendly,Bar
59600485123a19106a74b87f,Herr Lindemann,"Richardplatz 16, 12055 Berlin",52.47364942,13.44518817,,https://foursquare.com/placemakers/review-place/59600485123a19106a74b87f,,DE,"Industrial-Chic, Artsy, Cozy, Vintage, Dimly-lit, Quiet, Casual, Date-night, Handcrafted, Late-Night Service, Free Wi-Fi Available, Walk-In Friendly, Outdoor Seating, Wheelchair Accessible, Pet-Friendly, Cocktail Destination, Lo-Fi","Alcohol, Cocktail",child friendly,Cocktail Bar
537680d6498e82a2811855b7,Dschungel,"Friedelstr. 12, 12047 Berlin",52.48924807,13.42773328,,https://foursquare.com/placemakers/review-place/537680d6498e82a2811855b7,,DE,"Dimly-lit, Cozy, Casual, Cocktail Destination, Late-Night Service, Walk-In Friendly, Live Music, Jazz, Late-Night Work, Student Hangout",Alcohol,child friendly,Bar
50b66cd2e4b0bc146bb4280c,Alter Roter Löwe Rein,"Richardstr. 31, 12043 Berlin",52.47576452,13.44317757,,https://foursquare.com/placemakers/review-place/50b66cd2e4b0bc146bb4280c,,DE,"Casual, Solo-Friendly, Walk-In Friendly, Outdoor Seating, Wheelchair Accessible, Live Music, Jukebox, Student Hangout, Tourist Hotspot, Late-Night Service, Cozy, Vintage, Dimly-lit",Alcohol,child friendly,Bar
4fdcfc43e4b05197cd77a00c,Vater,"Reuterstr. 27 (Sonnenallee), 12047 Berlin",52.487702,13.43111,,https://foursquare.com/placemakers/review-place/4fdcfc43e4b05197cd77a00c,,DE,"Vintage, Dimly-lit, Cozy, Casual, Date-night, Solo-Friendly, Walk-In Friendly, Late-Night Service, Happy Hour, Jukebox, Live Music, Cocktail Destination, Late-Night Work",Alcohol,child friendly,Bar